      2.10          N: GNSS NAV DATA                        RINEX VERSION / TYPE
fic2rin                                 08/11/2023 00:18:00 PGM / RUN BY / DATE
                                                            END OF HEADER
6  23  8 10  1 59 44.0  .568315852433D-03 -.488853402203D-11  .000000000000D+00
     .130000000000D+02 -.572500000000D+02  .371872632845D-08  .268706999116D+01
    -.284984707832D-05  .269720610231D-02  .431761145592D-05  .515372073936D+04
     .352784000000D+06 -.335276126862D-07  .100797241407D+01 -.558793544769D-08
     .989318728090D+00  .312843750000D+03 -.777551562361D+00 -.782639742944D-08
    -.116433421348D-09  .100000000000D+01  .227400000000D+04  .000000000000D+00
     .240000000000D+01  .000000000000D+00  .372529029846D-08  .130000000000D+02
     .345600000000D+06  .400000000000D+01
31 23  8 10  1 59 44.0 -.221579801291D-03 -.682121026330D-12  .000000000000D+00
     .110000000000D+02  .209375000000D+01  .506378235543D-08  .941787982804D+00
     .363215804100D-06  .103655469138D-01  .748410820961D-05  .515359979820D+04
     .352784000000D+06 -.204890966415D-07 -.212146271002D+01  .104308128357D-06
     .954236264342D+00  .232312500000D+03  .563819386049D+00 -.826105839196D-08
    -.312870175156D-09  .100000000000D+01  .227400000000D+04  .000000000000D+00
     .240000000000D+01  .000000000000D+00 -.135041773319D-07  .110000000000D+02
     .349950000000D+06  .400000000000D+01
20 23  8 10  1 59 44.0  .418062321842D-03 -.204636307899D-11  .000000000000D+00
     .600000000000D+01 -.924687500000D+02  .445197115675D-08 -.294237947108D+01
    -.464543700218D-05  .404594023712D-02  .797398388386D-05  .515360087585D+04
     .352784000000D+06 -.335276126862D-07  .187526737358D+01 -.279396772385D-07
     .949444417657D+00  .218125000000D+03 -.287273705989D+01 -.799640451092D-08
     .249296098469D-09  .100000000000D+01  .227400000000D+04  .000000000000D+00
     .240000000000D+01  .000000000000D+00 -.838190317154D-08  .600000000000D+01
     .349950000000D+06  .400000000000D+01
4  23  8 10  3 44 32.0  .121042132378D-03  .113686837722D-10  .000000000000D+00
     .150000000000D+03 -.137812500000D+02  .452804575414D-08 -.110069010069D+01
    -.860542058945D-06  .247512781061D-02  .778026878834D-05  .515363346863D+04
     .359072000000D+06  .204890966415D-07  .312700333000D+01  .186264514923D-08
     .963566720742D+00  .227031250000D+03 -.301660669241D+01 -.794211653532D-08
     .435018120251D-09  .100000000000D+01  .227400000000D+04  .000000000000D+00
     .240000000000D+01  .000000000000D+00 -.465661287308D-08  .918000000000D+03
     .351900000000D+06  .400000000000D+01
31 23  8 10  3 59 44.0 -.221584457904D-03 -.682121026330D-12  .000000000000D+00
     .120000000000D+02  .100000000000D+01  .502020911186D-08  .199198672848D+01
     .106170773506D-06  .103656712454D-01  .773742794991D-05  .515360042191D+04
     .359984000000D+06 -.311061739922D-06 -.212152296469D+01  .186264514923D-07
     .954235045731D+00  .229843750000D+03  .563850947044D+00 -.810105172704D-08
    -.120004998690D-09  .100000000000D+01  .227400000000D+04  .000000000000D+00
     .240000000000D+01  .000000000000D+00 -.135041773319D-07  .120000000000D+02
     .352800000000D+06  .400000000000D+01
20 23  8 10  3 59 44.0  .418047886342D-03 -.204636307899D-11  .000000000000D+00
     .700000000000D+01 -.842812500000D+02  .439304013061D-08 -.189205032966D+01
    -.432133674622D-05  .404503336176D-02  .794045627117D-05  .515360266113D+04
     .359984000000D+06 -.912696123123D-07  .187521007839D+01 -.614672899246D-07
     .949446174621D+00  .219156250000D+03 -.287284253921D+01 -.797640367780D-08
     .206080012631D-09  .100000000000D+01  .227400000000D+04  .000000000000D+00
     .240000000000D+01  .000000000000D+00 -.838190317154D-08  .700000000000D+01
     .352800000000D+06  .400000000000D+01
2  23  8 10  4  0  0.0 -.567112118006D-03  .409272615798D-11  .000000000000D+00
     .660000000000D+02 -.283125000000D+02  .430232206613D-08 -.698568925400D-01
    -.136531889439D-05  .159627310932D-01  .377930700779D-05  .515354430580D+04
     .360000000000D+06 -.340864062309D-06  .915996804361D+00 -.135973095894D-06
     .967526247500D+00  .315125000000D+03 -.135830649270D+01 -.835499087605D-08
    -.108218793461D-09  .100000000000D+01  .227400000000D+04  .000000000000D+00
     .240000000000D+01  .000000000000D+00 -.176951289177D-07  .660000000000D+02
     .352800000000D+06  .400000000000D+01
1  23  8 10  4  0  0.0  .169187318534D-03 -.147792889038D-11  .000000000000D+00
     .430000000000D+02 -.428125000000D+02  .367122434980D-08 -.275373080854D+01
    -.209920108318D-05  .129054759163D-01  .373087823391D-05  .515364194870D+04
     .360000000000D+06  .931322574615D-07  .101625189403D+01 -.102445483208D-06
     .990129472901D+00  .322031250000D+03  .990844497519D+00 -.765710466343D-08
    -.317870383435D-10  .100000000000D+01  .227400000000D+04  .000000000000D+00
     .240000000000D+01  .630000000000D+02  .465661287308D-08  .430000000000D+02
     .352800000000D+06  .400000000000D+01
6  23  8 10  4  0  0.0  .568279996514D-03 -.488853402203D-11  .000000000000D+00
     .140000000000D+02 -.438437500000D+02  .385337479424D-08 -.254362511398D+01
    -.236369669437D-05  .269904255401D-02  .431016087532D-05  .515371730614D+04
     .360000000000D+06  .186264514923D-07  .100791602297D+01  .577419996262D-07
     .989317486073D+00  .313031250000D+03 -.777560120431D+00 -.788568561332D-08
    -.162149611325D-09  .100000000000D+01  .227400000000D+04  .000000000000D+00
     .240000000000D+01  .000000000000D+00  .372529029846D-08  .140000000000D+02
     .352800000000D+06  .400000000000D+01
3  23  8 10  4  0  0.0 -.194267835468D-03  .178488335223D-10  .000000000000D+00
     .380000000000D+02 -.749687500000D+02  .371372612017D-08  .233811020265D+01
    -.391528010368D-05  .510483363178D-02  .772252678871D-05  .515362627411D+04
     .360000000000D+06  .726431608200D-07  .204654884615D+01 -.912696123123D-07
     .979981289183D+00  .240375000000D+03  .108622667875D+01 -.765103298195D-08
     .216437586923D-09  .100000000000D+01  .227400000000D+04  .000000000000D+00
     .240000000000D+01  .000000000000D+00  .186264514923D-08  .380000000000D+02
     .352800000000D+06  .400000000000D+01
5  23  8 10  4  0  0.0 -.138218980283D-03 -.147792889038D-11  .000000000000D+00
     .870000000000D+02 -.757187500000D+02  .403623955415D-08 -.204239166307D+00
    -.383704900742D-05  .608695251867D-02  .846385955811D-05  .515371537018D+04
     .360000000000D+06 -.745058059692D-07  .199899174640D+01  .149011611938D-06
     .966979282911D+00  .219562500000D+03  .120227248277D+01 -.790104339589D-08
     .263939565571D-09  .100000000000D+01  .227400000000D+04  .000000000000D+00
     .240000000000D+01  .000000000000D+00 -.111758708954D-07  .870000000000D+02
     .352800000000D+06  .400000000000D+01
4  23  8 10  4  0  0.0  .121052376926D-03  .113686837722D-10  .000000000000D+00
     .151000000000D+03 -.145312500000D+02  .451375944477D-08 -.965298126713D+00
    -.847503542900D-06  .247517705429D-02  .777654349804D-05  .515363364029D+04
     .360000000000D+06  .167638063431D-07  .312699595104D+01  .000000000000D+00
     .963567130359D+00  .226875000000D+03 -.301663884296D+01 -.794068790438D-08
     .436803908922D-09  .100000000000D+01  .227400000000D+04  .000000000000D+00
     .240000000000D+01  .000000000000D+00 -.465661287308D-08  .919000000000D+03
     .352800000000D+06  .400000000000D+01
15 23  8 10  4  0  0.0  .661904923618D-04  .363797880709D-11  .000000000000D+00
     .210000000000D+02 -.183125000000D+02  .513164232493D-08 -.156397751934D+01
    -.623986124992D-06  .152455702191D-01  .736303627491D-05  .515375815773D+04
     .360000000000D+06  .329688191414D-06  .294948018724D+01  .206753611565D-06
     .933339263704D+00  .214718750000D+03  .122498229638D+01 -.813319592311D-08
     .461804950316D-09  .100000000000D+01  .227400000000D+04  .000000000000D+00
     .240000000000D+01  .000000000000D+00 -.107102096081D-07  .210000000000D+02
     .352800000000D+06  .400000000000D+01
12 23  8 10  4  0  0.0 -.411084387451D-03 -.454747350886D-11  .000000000000D+00
     .850000000000D+02  .801250000000D+02  .431767984870D-08  .219219796783D+01
     .387802720070D-05  .865539978258D-02  .848062336445D-05  .515357027054D+04
     .360000000000D+06  .447034835815D-07 -.102652778611D+01 -.150874257088D-06
     .964524614630D+00  .213062500000D+03  .138886523339D+01 -.771925010918D-08
    -.310012913282D-09  .100000000000D+01  .227400000000D+04  .000000000000D+00
     .240000000000D+01  .000000000000D+00 -.125728547573D-07  .850000000000D+02
     .352800000000D+06  .400000000000D+01
10 23  8 10  4  0  0.0 -.486643984914D-04 -.159161572810D-11  .000000000000D+00
     .530000000000D+02 -.854375000000D+02  .382444501777D-08  .144596982368D+01
    -.439584255219D-05  .865446496755D-02  .814720988274D-05  .515369265938D+04
     .360000000000D+06 -.135973095894D-06  .204392230255D+01  .763684511185D-07
     .979699080582D+00  .233250000000D+03 -.244294689281D+01 -.777353808478D-08
     .120362156424D-09  .100000000000D+01  .227400000000D+04  .000000000000D+00
     .240000000000D+01  .000000000000D+00  .232830643654D-08  .530000000000D+02
     .352800000000D+06  .400000000000D+01
8  23  8 10  4  0  0.0 -.136419199407D-03 -.181898940355D-11  .000000000000D+00
     .112000000000D+03  .726250000000D+02  .456840457810D-08 -.578982195470D+00
     .369921326637D-05  .852024857886D-02  .511296093464D-05  .515373708344D+04
     .360000000000D+06  .175088644028D-06 -.776235728991D-01  .335276126862D-07
     .957850761872D+00  .280625000000D+03  .271195191774D+00 -.823284293095D-08
    -.146434671020D-09  .100000000000D+01  .227400000000D+04  .000000000000D+00
     .240000000000D+01  .000000000000D+00  .512227416039D-08  .112000000000D+03
     .352800000000D+06  .400000000000D+01
